OBJECT_NAME,OBJECT_ID,EPOCH,MEAN_MOTION,ECCENTRICITY,INCLINATION,RA_OF_ASC_NODE,ARG_OF_PERICENTER,MEAN_ANOMALY,EPHEMERIS_TYPE,CLASSIFICATION_TYPE,NORAD_CAT_ID,ELEMENT_SET_NO,REV_AT_EPOCH,BSTAR,MEAN_MOTION_DOT,MEAN_MOTION_DDOT
STARLINK-37531,2026-110N,2026-06-07T06:00:04.999968,15.71691482,.00018599,97.2844,354.5797,93.2184,182.4972,0,U,69136,999,406,-.2342591E-1,-.2619795E-1,0
STARLINK-37662,2026-110P,2026-06-07T06:00:04.999968,15.65759452,.00020438,97.2853,354.5592,91.0668,135.8483,0,U,69137,999,406,-.29678309E-1,-.2600069E-1,0
STARLINK-37658,2026-110Q,2026-06-07T06:00:04.999968,15.56569311,.00019757,97.2857,354.5157,77.8345,40.0651,0,U,69138,999,406,-.40460772E-1,-.249665E-1,0
STARLINK-37659,2026-110R,2026-06-07T06:00:04.999968,15.54718645,.00015769,97.2857,354.5022,77.5366,8.1172,0,U,69139,999,406,-.42825414E-1,-.2470578E-1,0
STARLINK-37653,2026-110S,2026-06-07T06:00:04.999968,15.53331598,.00019877,97.2853,354.4932,64.7270,12.0244,0,U,69140,999,406,-.51641806E-1,-.2841617E-1,0
STARLINK-37654,2026-110T,2026-06-07T06:00:04.999968,15.64555330,.00018603,97.2848,354.5660,85.5031,161.2927,0,U,69141,999,406,-.30419922E-1,-.2547247E-1,0
STARLINK-37655,2026-110U,2026-06-07T06:00:04.999968,15.68840319,.00017764,97.2843,354.5792,98.6339,174.2136,0,U,69142,999,406,-.2589129E-1,-.2575863E-1,0
STARLINK-37636,2026-110V,2026-06-06T23:58:49.294560,15.79523508,.00013554,97.2837,354.3451,347.3187,12.8046,0,U,69143,999,403,-.35648983E-2,-.601421E-2,0
STARLINK-37638,2026-110W,2026-06-06T23:57:33.980544,15.80100204,.00001148,97.2838,354.3466,66.5472,293.5808,0,U,69144,999,403,-.25911879E-2,-.456137E-2,0
STARLINK-37657,2026-110X,2026-06-07T06:00:04.999968,15.63676247,.0001943,97.2853,354.5705,98.0756,157.1982,0,U,69145,999,411,-.32131989E-1,-.2591374E-1,0
STARLINK-37639,2026-110Y,2026-06-06T17:50:37.574880,15.80817130,.00016264,97.2842,354.0809,87.6130,272.5325,0,U,69146,999,399,.8451881E-3,.164857E-2,0
STARLINK-37661,2026-110Z,2026-06-07T06:00:04.999968,15.57296835,.00021974,97.2858,354.5443,79.1812,103.8189,0,U,69147,999,411,-.40114459E-1,-.2537606E-1,0
STARLINK-37395,2026-111A,2026-06-06T23:10:31.984608,15.80920520,.00008005,53.1579,202.8870,142.0851,218.0228,0,U,69148,999,264,.12572286E-2,.25548E-2,0
STARLINK-37346,2026-111B,2026-06-06T23:09:01.897056,15.80922410,.00009719,53.1581,202.8802,104.2007,255.9124,0,U,69149,999,264,.1288708E-2,.262119E-2,0
STARLINK-37332,2026-111C,2026-06-07T00:00:04.000320,15.80812937,.00010913,53.1584,202.6859,91.4309,118.2502,0,U,69150,999,390,.71224795E-3,.141812E-2,0
STARLINK-37297,2026-111D,2026-06-06T23:08:43.415232,15.80918957,.00008483,53.1583,202.8787,75.3961,284.7156,0,U,69151,999,264,.10993751E-2,.222434E-2,0
STARLINK-37317,2026-111E,2026-06-06T23:05:53.767968,15.80903835,.00010084,53.1585,202.8651,119.8406,240.2717,0,U,69152,999,264,.10134006E-2,.204408E-2,0
STARLINK-37374,2026-111F,2026-06-06T23:03:49.798656,15.80744431,.00006367,53.1584,202.8555,125.9379,234.1703,0,U,69153,999,264,-.24512309E-3,-.48518E-3,0
STARLINK-37235,2026-111G,2026-06-07T06:00:04.999968,15.72215669,.00012748,53.1594,201.4657,85.0642,92.5479,0,U,69154,999,395,-.21688182E-1,-.2548254E-1,0
STARLINK-37329,2026-111H,2026-06-06T23:06:32.728320,15.80955214,.00019908,53.1584,202.8678,79.4221,280.7026,0,U,69155,999,264,.14973497E-2,.306728E-2,0
STARLINK-37345,2026-111J,2026-06-06T23:04:27.715296,15.80954540,.0001477,53.1585,202.8595,113.8042,246.3136,0,U,69156,999,264,.16588177E-2,.341248E-2,0
STARLINK-37353,2026-111K,2026-06-06T23:04:09.313824,15.80921048,.00018636,53.1589,202.8569,9.1223,350.9833,0,U,69157,999,264,.12472155E-2,.253381E-2,0
STARLINK-37363,2026-111L,2026-06-07T00:32:03.188832,15.81549012,.00110299,53.1592,202.5339,345.8866,14.1848,0,U,69158,999,265,.3615434E-2,.809904E-2,0
STARLINK-37343,2026-111M,2026-06-07T06:00:04.999968,15.77769114,.00011835,53.1595,201.3940,96.0851,116.2486,0,U,69159,999,395,-.13814274E-1,-.2040116E-1,0
STARLINK-37328,2026-111N,2026-06-07T06:00:04.999968,15.80893267,.00013342,53.1590,201.3839,93.4095,124.0087,0,U,69160,999,395,.42406702E-4,.7685E-4,0
STARLINK-37311,2026-111P,2026-06-07T06:00:04.999968,15.78086259,.00003269,53.1592,201.3845,121.6412,95.4014,0,U,69161,999,395,-.31036584E-3,-.54285E-3,0
STARLINK-36286,2026-111Q,2026-06-07T06:00:04.999968,15.78079974,.00008935,53.1590,201.3744,85.5726,136.4135,0,U,69162,999,395,-.28778888E-3,-.50396E-3,0
STARLINK-37196,2026-111R,2026-06-07T06:00:04.999968,15.78113776,.00011448,53.1592,201.4056,116.1777,90.2325,0,U,69163,999,395,-.48565766E-3,-.84385E-3,0
STARLINK-36288,2026-111S,2026-06-07T06:00:04.999968,15.78103956,.00010837,53.1594,201.3958,90.7955,120.2260,0,U,69164,999,395,-.33000606E-3,-.57706E-3,0
STARLINK-37445,2026-111T,2026-06-07T06:00:04.999968,15.78105447,.00006817,53.1592,201.3590,73.0087,155.8885,0,U,69165,999,395,-.58662901E-3,-.101545E-2,0
