STARLINK-37531          
1 69136U 26110N   26158.25005787 -.02619795  00000+0 -23426-1 0  9999
2 69136  97.2844 354.5797 0001859  93.2184 182.4972 15.71691482  4068
STARLINK-37662          
1 69137U 26110P   26158.25005787 -.02600069  00000+0 -29678-1 0  9999
2 69137  97.2853 354.5592 0002043  91.0668 135.8483 15.65759452  4065
STARLINK-37658          
1 69138U 26110Q   26158.25005787 -.02496650  00000+0 -40461-1 0  9992
2 69138  97.2857 354.5157 0001975  77.8345  40.0651 15.56569311  4061
STARLINK-37659          
1 69139U 26110R   26158.25005787 -.02470578  00000+0 -42825-1 0  9990
2 69139  97.2857 354.5022 0001576  77.5366   8.1172 15.54718645  4067
STARLINK-37653          
1 69140U 26110S   26158.25005787 -.02841617  00000+0 -51642-1 0  9995
2 69140  97.2853 354.4932 0001987  64.7270  12.0244 15.53331598  4063
STARLINK-37654          
1 69141U 26110T   26158.25005787 -.02547247  00000+0 -30420-1 0  9999
2 69141  97.2848 354.5660 0001860  85.5031 161.2927 15.64555330  4062
STARLINK-37655          
1 69142U 26110U   26158.25005787 -.02575863  00000+0 -25891-1 0  9991
2 69142  97.2843 354.5792 0001776  98.6339 174.2136 15.68840319  4060
STARLINK-37636          
1 69143U 26110V   26157.99918165 -.00601421  00000+0 -35649-2 0  9996
2 69143  97.2837 354.3451 0001355 347.3187  12.8046 15.79523508  4036
STARLINK-37638          
1 69144U 26110W   26157.99830996 -.00456137  00000+0 -25912-2 0  9996
2 69144  97.2838 354.3466 0000114  66.5472 293.5808 15.80100204  4033
STARLINK-37657          
1 69145U 26110X   26158.25005787 -.02591374  00000+0 -32132-1 0  9995
2 69145  97.2853 354.5705 0001943  98.0756 157.1982 15.63676247  4118
STARLINK-37639          
1 69146U 26110Y   26157.74349045  .00164857  00000+0  84519-3 0  9993
2 69146  97.2842 354.0809 0001626  87.6130 272.5325 15.80817130  3990
STARLINK-37661          
1 69147U 26110Z   26158.25005787 -.02537606  00000+0 -40114-1 0  9994
2 69147  97.2858 354.5443 0002197  79.1812 103.8189 15.57296835  4110
STARLINK-37395          
1 69148U 26111A   26157.96564797  .00255480  00000+0  12572-2 0  9995
2 69148  53.1579 202.8870 0000800 142.0851 218.0228 15.80920520  2643
STARLINK-37346          
1 69149U 26111B   26157.96460529  .00262119  00000+0  12887-2 0  9990
2 69149  53.1581 202.8802 0000971 104.2007 255.9124 15.80922410  2649
STARLINK-37332          
1 69150U 26111C   26158.00004630  .00141812  00000+0  71225-3 0  9993
2 69150  53.1584 202.6859 0001091  91.4309 118.2502 15.80812937  3903
STARLINK-37297          
1 69151U 26111D   26157.96439138  .00222434  00000+0  10994-2 0  9998
2 69151  53.1583 202.8787 0000848  75.3961 284.7156 15.80918957  2642
STARLINK-37317          
1 69152U 26111E   26157.96242787  .00204408  00000+0  10134-2 0  9998
2 69152  53.1585 202.8651 0001008 119.8406 240.2717 15.80903835  2641
STARLINK-37374          
1 69153U 26111F   26157.96099304 -.00048518  00000+0 -24512-3 0  9990
2 69153  53.1584 202.8555 0000636 125.9379 234.1703 15.80744431  2649
STARLINK-37235          
1 69154U 26111G   26158.25005787 -.02548254  00000+0 -21688-1 0  9999
2 69154  53.1594 201.4657 0001274  85.0642  92.5479 15.72215669  3955
STARLINK-37329          
1 69155U 26111H   26157.96287880  .00306728  00000+0  14973-2 0  9997
2 69155  53.1584 202.8678 0001990  79.4221 280.7026 15.80955214  2648
STARLINK-37345          
1 69156U 26111J   26157.96143189  .00341248  00000+0  16588-2 0  9991
2 69156  53.1585 202.8595 0001477 113.8042 246.3136 15.80954540  2643
STARLINK-37353          
1 69157U 26111K   26157.96121891  .00253381  00000+0  12472-2 0  9996
2 69157  53.1589 202.8569 0001863   9.1223 350.9833 15.80921048  2649
STARLINK-37363          
1 69158U 26111L   26158.02225913  .00809904  00000+0  36154-2 0  9996
2 69158  53.1592 202.5339 0011029 345.8866  14.1848 15.81549012  2658
STARLINK-37343          
1 69159U 26111M   26158.25005787 -.02040116  00000+0 -13814-1 0  9990
2 69159  53.1595 201.3940 0001183  96.0851 116.2486 15.77769114  3954
STARLINK-37328          
1 69160U 26111N   26158.25005787  .00007685  00000+0  42407-4 0  9995
2 69160  53.1590 201.3839 0001334  93.4095 124.0087 15.80893267  3952
STARLINK-37311          
1 69161U 26111P   26158.25005787 -.00054285  00000+0 -31037-3 0  9992
2 69161  53.1592 201.3845 0000326 121.6412  95.4014 15.78086259  3952
STARLINK-36286          
1 69162U 26111Q   26158.25005787 -.00050396  00000+0 -28779-3 0  9991
2 69162  53.1590 201.3744 0000893  85.5726 136.4135 15.78079974  3950
STARLINK-37196          
1 69163U 26111R   26158.25005787 -.00084385  00000+0 -48566-3 0  9993
2 69163  53.1592 201.4056 0001144 116.1777  90.2325 15.78113776  3954
STARLINK-36288          
1 69164U 26111S   26158.25005787 -.00057706  00000+0 -33001-3 0  9999
2 69164  53.1594 201.3958 0001083  90.7955 120.2260 15.78103956  3955
STARLINK-37445          
1 69165U 26111T   26158.25005787 -.00101545  00000+0 -58663-3 0  9992
2 69165  53.1592 201.3590 0000681  73.0087 155.8885 15.78105447  3953
